{"type": "FeatureCollection", "features": [ {"type": "Feature", "properties": {"norad_id": 64901, "name": "CO3D 4", "group": "resource", "lat": -81.61095478143037, "lon": -175.41937975334355, "alt_km": 512.5103209210029, "timestamp": "2025-12-16T13:52:37.187782+00:00", "meta": {"OBJECT_NAME": "CO3D 4", "OBJECT_ID": "2025-156C", "EPOCH": "2025-12-16T00:04:18.698880", "MEAN_MOTION": 15.20194933, "ECCENTRICITY": 9.749e-05, "INCLINATION": 97.4346, "RA_OF_ASC_NODE": 66.3236, "ARG_OF_PERICENTER": 186.2126, "MEAN_ANOMALY": 173.9098, "EPHEMERIS_TYPE": 0, "CLASSIFICATION_TYPE": "U", "NORAD_CAT_ID": 64901, "ELEMENT_SET_NO": 999, "REV_AT_EPOCH": 2170, "BSTAR": 0.00021321927, "MEAN_MOTION_DOT": 4.55e-05, "MEAN_MOTION_DDOT": 0}, "tle": {"line1": "1 64901U 25156C   25350.00299420  .00004550  00000+0  21322-3 0  9996", "line2": "2 64901  97.4346  66.3236 0000974 186.2126 173.9098 15.20194933 21701"}}, "geometry": {"type": "Point", "coordinates": [-175.41937975334355, -81.61095478143037]}}, {"type": "Feature", "properties": {"norad_id": 64902, "name": "CO3D 2", "group": "resource", "lat": 65.91414641916147, "lon": -96.19186108739821, "alt_km": 503.0905257672475, "timestamp": "2025-12-16T13:52:37.187793+00:00", "meta": {"OBJECT_NAME": "CO3D 2", "OBJECT_ID": "2025-156D", "EPOCH": "2025-12-12T21:01:26.694624", "MEAN_MOTION": 15.22031437, "ECCENTRICITY": 0.00203863, "INCLINATION": 97.4215, "RA_OF_ASC_NODE": 63.2016, "ARG_OF_PERICENTER": 351.3096, "MEAN_ANOMALY": 8.7784, "EPHEMERIS_TYPE": 0, "CLASSIFICATION_TYPE": "U", "NORAD_CAT_ID": 64902, "ELEMENT_SET_NO": 999, "REV_AT_EPOCH": 2122, "BSTAR": 0.00010503321, "MEAN_MOTION_DOT": 2.342e-05, "MEAN_MOTION_DDOT": 0}, "tle": {"line1": "1 64902U 25156D   25346.87600341  .00002342  00000+0  10503-3 0  9991", "line2": "2 64902  97.4215  63.2016 0020386 351.3096   8.7784 15.22031437 21224"}}, "geometry": {"type": "Point", "coordinates": [-96.19186108739821, 65.91414641916147]}}, {"type": "Feature", "properties": {"norad_id": 64903, "name": "CO3D 1", "group": "resource", "lat": 82.43093899855766, "lon": -12.543300964889417, "alt_km": 497.12641725706726, "timestamp": "2025-12-16T13:52:37.187803+00:00", "meta": {"OBJECT_NAME": "CO3D 1", "OBJECT_ID": "2025-156E", "EPOCH": "2025-12-15T23:16:16.169376", "MEAN_MOTION": 15.20209256, "ECCENTRICITY": 9.173e-05, "INCLINATION": 97.4346, "RA_OF_ASC_NODE": 66.1893, "ARG_OF_PERICENTER": 72.6045, "MEAN_ANOMALY": 287.529, "EPHEMERIS_TYPE": 0, "CLASSIFICATION_TYPE": "U", "NORAD_CAT_ID": 64903, "ELEMENT_SET_NO": 999, "REV_AT_EPOCH": 2169, "BSTAR": 0.00020686241, "MEAN_MOTION_DOT": 4.414e-05, "MEAN_MOTION_DDOT": 0}, "tle": {"line1": "1 64903U 25156E   25349.96963159  .00004414  00000+0  20686-3 0  9999", "line2": "2 64903  97.4346  66.1893 0000917  72.6045 287.5290 15.20209256 21694"}}, "geometry": {"type": "Point", "coordinates": [-12.543300964889417, 82.43093899855766]}}, {"type": "Feature", "properties": {"norad_id": 66514, "name": "SENTINEL-6B", "group": "resource", "lat": 17.16722844865131, "lon": -33.43770580125034, "alt_km": 1336.7610207923844, "timestamp": "2025-12-16T13:52:37.187813+00:00", "meta": {"OBJECT_NAME": "SENTINEL-6B", "OBJECT_ID": "2025-264A", "EPOCH": "2025-12-12T06:01:21.430272", "MEAN_MOTION": 12.81479576, "ECCENTRICITY": 0.0007847, "INCLINATION": 66.0385, "RA_OF_ASC_NODE": 163.4531, "ARG_OF_PERICENTER": 270.1745, "MEAN_ANOMALY": 89.8371, "EPHEMERIS_TYPE": 0, "CLASSIFICATION_TYPE": "U", "NORAD_CAT_ID": 66514, "ELEMENT_SET_NO": 999, "REV_AT_EPOCH": 322, "BSTAR": 0.00018864317, "MEAN_MOTION_DOT": -1.7e-07, "MEAN_MOTION_DDOT": 0}, "tle": {"line1": "1 66514U 25264A   25346.25094248 -.00000017  00000+0  18864-3 0  9993", "line2": "2 66514  66.0385 163.4531 0007847 270.1745  89.8371 12.81479576  3220"}}, "geometry": {"type": "Point", "coordinates": [-33.43770580125034, 17.16722844865131]}}]}